{"fetched_at":"2026-03-30T06:02:59Z","count":15439,"tles":[{"name":"STARLINK-5125","line1":"1 53994U 22125AG  26087.82908000 -.00000496  00000+0 -13105-4 0  9996","line2":"2 53994  53.2169 128.0784 0001352  82.6695 277.4451 15.08836722192357","category":"Starlink"}]}