{
  "norad_id": 53994,
  "name": "STARLINK-5125",
  "history": [
    {
      "epoch": "2026-03-28T19:53:52.512000Z",
      "apogee_km": 540.6891223735147,
      "perigee_km": 538.8176946602034,
      "latitude_deg": 1.4316130627345981e-05,
      "longitude_deg": 3.3656962087451454,
      "height_km": 540.5296958213829,
      "semi_major_axis_km": 6917.890408516859,
      "eccentricity": 0.00013526,
      "inclination_deg": 53.2169,
      "raan_deg": 128.0784,
      "arg_perigee_deg": 82.6695,
      "mean_anomaly_deg": 277.4451,
      "mean_motion_rev_day": 15.08836722
    }
  ]
}